[
  {
    "id": 1,
    "name": "John Doe",
    "avatar": "https://randomuser.me/api/portraits/men/1.jpg",
    "skills": ["JavaScript", "React", "Node.js"],
    "experience": "5 years",
    "address": { "street": "123 Main St", "city": "Anytown", "state": "CA", "zip": "12345" }
  },
  {
    "id": 2,
    "name": "Jane Doe",
    "avatar": "https://randomuser.me/api/portraits/women/2.jpg",
    "skills": ["Python", "Django", "PostgreSQL"],
    "experience": "3 years",
    "address": { "street": "456 Elm St", "city": "Anytown", "state": "CA", "zip": "12345" }
  },
  {
    "id": 3,
    "name": "Bob Smith",
    "avatar": "https://randomuser.me/api/portraits/men/3.jpg",
    "skills": ["Java", "Spring", "MySQL"],
    "experience": "7 years",
    "address": { "street": "789 Oak St", "city": "Anytown", "state": "CA", "zip": "12345" }
  },
  {
    "id": 4,
    "name": "Alice Johnson",
    "avatar": "https://randomuser.me/api/portraits/women/4.jpg",
    "skills": ["Ruby", "Rails", "PostgreSQL"],
    "experience": "4 years",
    "address": { "street": "321 Pine St", "city": "Anytown", "state": "CA", "zip": "12345" }
  },
  {
    "id": 5,
    "name": "Mike Brown",
    "avatar": "https://randomuser.me/api/portraits/men/5.jpg",
    "skills": ["C++", "Qt", "SQLite"],
    "experience": "2 years",
    "address": { "street": "654 Maple St", "city": "Anytown", "state": "CA", "zip": "12345" }
  },
  {
    "id": 6,
    "name": "Emily Davis",
    "avatar": "https://randomuser.me/api/portraits/women/6.jpg",
    "skills": ["PHP", "Laravel", "MySQL"],
    "experience": "6 years",
    "address": { "street": "987 Cedar St", "city": "Anytown", "state": "CA", "zip": "12345" }
  },
  {
    "id": 7,
    "name": "David Lee",
    "avatar": "https://randomuser.me/api/portraits/men/7.jpg",
    "skills": ["Python", "Flask", "MongoDB"],
    "experience": "3 years",
    "address": { "street": "246 Birch St", "city": "Anytown", "state": "CA", "zip": "12345" }
  },
  {
    "id": 8,
    "name": "Sarah Wilson",
    "avatar": "https://randomuser.me/api/portraits/women/8.jpg",
    "skills": ["JavaScript", "Vue.js", "Firebase"],
    "experience": "2 years",
    "address": { "street": "135 Walnut St", "city": "Anytown", "state": "CA", "zip": "12345" }
  },
  {
    "id": 9,
    "name": "Chris Johnson",
    "avatar": "https://randomuser.me/api/portraits/men/9.jpg",
    "skills": ["Java", "Hibernate", "Oracle"],
    "experience": "5 years",
    "address": { "street": "864 Pine St", "city": "Anytown", "state": "CA", "zip": "12345" }
  },
  {
    "id": 10,
    "name": "Jessica Brown",
    "avatar": "https://randomuser.me/api/portraits/women/10.jpg",
    "skills": ["Ruby", "Sinatra", "PostgreSQL"],
    "experience": "4 years",
    "address": { "street": "753 Oak St", "city": "Anytown", "state": "CA", "zip": "12345" }
  }
]
